{
  "norad_id": 67255,
  "name": "2025-313H",
  "history": [
    {
      "epoch": "2026-03-28T22:02:30.573888Z",
      "apogee_km": 614.9664070631952,
      "perigee_km": 499.9144710232358,
      "latitude_deg": 7.390460795768807e-05,
      "longitude_deg": 3.223137828114728,
      "height_km": 582.6086859462085,
      "semi_major_axis_km": 6935.577439043215,
      "eccentricity": 0.00829433,
      "inclination_deg": 97.2934,
      "raan_deg": 160.1825,
      "arg_perigee_deg": 247.0995,
      "mean_anomaly_deg": 112.1461,
      "mean_motion_rev_day": 15.03068676
    },
    {
      "epoch": "2026-03-29T04:25:58.223424Z",
      "apogee_km": 614.930687975122,
      "perigee_km": 499.94991325460796,
      "latitude_deg": -1.1391054632810816e-05,
      "longitude_deg": -92.65372726139645,
      "height_km": 583.4528205981834,
      "semi_major_axis_km": 6935.577300614865,
      "eccentricity": 0.0082892,
      "inclination_deg": 97.2933,
      "raan_deg": 160.4333,
      "arg_perigee_deg": 246.1737,
      "mean_anomaly_deg": 113.0784,
      "mean_motion_rev_day": 15.03068721
    },
    {
      "epoch": "2026-03-30T04:23:51.848736Z",
      "apogee_km": 614.209779840734,
      "perigee_km": 499.7911082340279,
      "latitude_deg": -4.256395674551425e-05,
      "longitude_deg": -92.17036477119626,
      "height_km": 586.0072974953256,
      "semi_major_axis_km": 6935.13744403738,
      "eccentricity": 0.0082492,
      "inclination_deg": 97.2927,
      "raan_deg": 161.3743,
      "arg_perigee_deg": 242.749,
      "mean_anomaly_deg": 116.5315,
      "mean_motion_rev_day": 15.0321172
    },
    {
      "epoch": "2026-03-30T05:59:43.220256Z",
      "apogee_km": 614.2148616635195,
      "perigee_km": 499.7837257897718,
      "latitude_deg": -4.820956178287322e-05,
      "longitude_deg": -116.13722320756992,
      "height_km": 586.1508281511534,
      "semi_major_axis_km": 6935.136293726646,
      "eccentricity": 0.0082501,
      "inclination_deg": 97.2929,
      "raan_deg": 161.4371,
      "arg_perigee_deg": 242.5901,
      "mean_anomaly_deg": 116.6915,
      "mean_motion_rev_day": 15.03212094
    },
    {
      "epoch": "2026-03-30T13:58:59.947392Z",
      "apogee_km": 614.1742776197871,
      "perigee_km": 499.8153411097237,
      "latitude_deg": 8.676395922349457e-06,
      "longitude_deg": 124.02851886483944,
      "height_km": 587.111506161845,
      "semi_major_axis_km": 6935.131809364755,
      "eccentricity": 0.0082449,
      "inclination_deg": 97.2928,
      "raan_deg": 161.7506,
      "arg_perigee_deg": 241.4843,
      "mean_anomaly_deg": 117.8064,
      "mean_motion_rev_day": 15.03213552
    },
    {
      "epoch": "2026-03-30T21:58:14.498112Z",
      "apogee_km": 613.0770065305578,
      "perigee_km": 499.829324075421,
      "latitude_deg": -5.8867679901696545e-05,
      "longitude_deg": 4.201670001988464,
      "height_km": 587.2161484800864,
      "semi_major_axis_km": 6934.590165302989,
      "eccentricity": 0.00816542,
      "inclination_deg": 97.2919,
      "raan_deg": 162.0624,
      "arg_perigee_deg": 240.4437,
      "mean_anomaly_deg": 118.8632,
      "mean_motion_rev_day": 15.03389674
    },
    {
      "epoch": "2026-03-31T20:19:59.897856Z",
      "apogee_km": 612.6355725752001,
      "perigee_km": 499.72134027207176,
      "latitude_deg": 2.554103063273749e-05,
      "longitude_deg": 28.724595145250355,
      "height_km": 589.820663882609,
      "semi_major_axis_km": 6934.315456423636,
      "eccentricity": 0.0081417,
      "inclination_deg": 97.2926,
      "raan_deg": 162.9429,
      "arg_perigee_deg": 236.9537,
      "mean_anomaly_deg": 122.3851,
      "mean_motion_rev_day": 15.03479012
    },
    {
      "epoch": "2026-04-01T18:41:42.860256Z",
      "apogee_km": 611.8574287442943,
      "perigee_km": 499.5403812210234,
      "latitude_deg": -1.4259435706236603e-05,
      "longitude_deg": 53.25431938931435,
      "height_km": 591.832477241085,
      "semi_major_axis_km": 6933.835904982659,
      "eccentricity": 0.0080992,
      "inclination_deg": 97.2924,
      "raan_deg": 163.82,
      "arg_perigee_deg": 233.6901,
      "mean_anomaly_deg": 125.6828,
      "mean_motion_rev_day": 15.03634988
    },
    {
      "epoch": "2026-04-02T20:14:52.694016Z",
      "apogee_km": 611.1300388451755,
      "perigee_km": 499.54822079277346,
      "latitude_deg": 3.280435193729104e-05,
      "longitude_deg": 29.918926863949892,
      "height_km": 594.0777268982166,
      "semi_major_axis_km": 6933.476129818974,
      "eccentricity": 0.0080466,
      "inclination_deg": 97.2916,
      "raan_deg": 164.825,
      "arg_perigee_deg": 230.0394,
      "mean_anomaly_deg": 129.3747,
      "mean_motion_rev_day": 15.03752024
    },
    {
      "epoch": "2026-04-02T23:26:31.231104Z",
      "apogee_km": 611.1287375928287,
      "perigee_km": 499.527544017129,
      "latitude_deg": 3.6694754376067484e-05,
      "longitude_deg": -17.997219221077657,
      "height_km": 594.4067635193685,
      "semi_major_axis_km": 6933.465140804979,
      "eccentricity": 0.00804801,
      "inclination_deg": 97.2916,
      "raan_deg": 164.9506,
      "arg_perigee_deg": 229.5946,
      "mean_anomaly_deg": 129.824,
      "mean_motion_rev_day": 15.03755599
    },
    {
      "epoch": "2026-04-03T20:12:11.811168Z",
      "apogee_km": 611.1844212533333,
      "perigee_km": 499.4325337361688,
      "latitude_deg": -1.286910850126923e-05,
      "longitude_deg": 30.546768285346495,
      "height_km": 596.6124238318088,
      "semi_major_axis_km": 6933.445477494751,
      "eccentricity": 0.0080589,
      "inclination_deg": 97.2911,
      "raan_deg": 165.7663,
      "arg_perigee_deg": 226.6224,
      "mean_anomaly_deg": 132.8272,
      "mean_motion_rev_day": 15.03761996
    },
    {
      "epoch": "2026-04-04T20:09:30.523104Z",
      "apogee_km": 611.2504656477422,
      "perigee_km": 499.32694783410625,
      "latitude_deg": 6.29438570650156e-05,
      "longitude_deg": 31.176186414741583,
      "height_km": 599.0150453316395,
      "semi_major_axis_km": 6933.425706740924,
      "eccentricity": 0.0080713,
      "inclination_deg": 97.2904,
      "raan_deg": 166.7075,
      "arg_perigee_deg": 223.2269,
      "mean_anomaly_deg": 136.2606,
      "mean_motion_rev_day": 15.03768428
    },
    {
      "epoch": "2026-04-05T13:43:32.059776Z",
      "apogee_km": 611.3065841771922,
      "perigee_km": 499.2479110971699,
      "latitude_deg": 2.464708982989517e-05,
      "longitude_deg": 127.63853241610911,
      "height_km": 600.6987472097804,
      "semi_major_axis_km": 6933.414247637181,
      "eccentricity": 0.00808106,
      "inclination_deg": 97.2901,
      "raan_deg": 167.3977,
      "arg_perigee_deg": 220.7344,
      "mean_anomaly_deg": 138.7823,
      "mean_motion_rev_day": 15.03772156
    },
    {
      "epoch": "2026-04-05T20:06:48.979296Z",
      "apogee_km": 611.3202171572784,
      "perigee_km": 499.2277616912561,
      "latitude_deg": 5.028705065218893e-05,
      "longitude_deg": 31.806583475809816,
      "height_km": 601.2745033296195,
      "semi_major_axis_km": 6933.410989424267,
      "eccentricity": 0.0080835,
      "inclination_deg": 97.29,
      "raan_deg": 167.6486,
      "arg_perigee_deg": 219.8481,
      "mean_anomaly_deg": 139.6794,
      "mean_motion_rev_day": 15.03773216
    },
    {
      "epoch": "2026-04-06T07:17:33.521280Z",
      "apogee_km": 611.3658383604106,
      "perigee_km": 499.1719601249879,
      "latitude_deg": 2.7785002701178147e-05,
      "longitude_deg": -135.8990131412985,
      "height_km": 602.3002017315056,
      "semi_major_axis_km": 6933.405899242699,
      "eccentricity": 0.00809082,
      "inclination_deg": 97.2898,
      "raan_deg": 168.0877,
      "arg_perigee_deg": 218.2559,
      "mean_anomaly_deg": 141.2911,
      "mean_motion_rev_day": 15.03774872
    },
    {
      "epoch": "2026-04-07T20:01:25.318848Z",
      "apogee_km": 611.4900936563135,
      "perigee_km": 499.01663516484587,
      "latitude_deg": 7.81528249861514e-05,
      "longitude_deg": 33.069662255660916,
      "height_km": 605.4083478766014,
      "semi_major_axis_km": 6933.390364410579,
      "eccentricity": 0.008111,
      "inclination_deg": 97.2892,
      "raan_deg": 169.5307,
      "arg_perigee_deg": 213.0387,
      "mean_anomaly_deg": 146.5759,
      "mean_motion_rev_day": 15.03779926
    },
    {
      "epoch": "2026-04-08T15:11:14.880768Z",
      "apogee_km": 611.0769027843053,
      "perigee_km": 498.9418571895276,
      "latitude_deg": 6.824020002762261e-05,
      "longitude_deg": 105.58162512602257,
      "height_km": 606.3785063149861,
      "semi_major_axis_km": 6933.146379986916,
      "eccentricity": 0.00808688,
      "inclination_deg": 97.2873,
      "raan_deg": 170.2862,
      "arg_perigee_deg": 210.4331,
      "mean_anomaly_deg": 149.219,
      "mean_motion_rev_day": 15.03859306
    },
    {
      "epoch": "2026-04-09T19:55:43.779648Z",
      "apogee_km": 609.9667789102668,
      "perigee_km": 498.83817112572797,
      "latitude_deg": -5.6065491621968994e-06,
      "longitude_deg": 34.40755322346858,
      "height_km": 607.2422760397476,
      "semi_major_axis_km": 6932.539475017997,
      "eccentricity": 0.008015,
      "inclination_deg": 97.2886,
      "raan_deg": 171.4129,
      "arg_perigee_deg": 206.348,
      "mean_anomaly_deg": 153.3661,
      "mean_motion_rev_day": 15.04056792
    },
    {
      "epoch": "2026-04-10T11:53:45.207168Z",
      "apogee_km": 610.0193862821097,
      "perigee_km": 498.76477310536757,
      "latitude_deg": 2.809007172516058e-05,
      "longitude_deg": 154.87325527648446,
      "height_km": 608.2287837191915,
      "semi_major_axis_km": 6932.529079693738,
      "eccentricity": 0.0080241,
      "inclination_deg": 97.2884,
      "raan_deg": 172.0403,
      "arg_perigee_deg": 204.0976,
      "mean_anomaly_deg": 155.6489,
      "mean_motion_rev_day": 15.04060175
    }
  ]
}